GLOBALSTAR M062         
1 26082U 00008B   25009.95181321 -.00000044  00000+0  38819-3 0  9992
2 26082  51.9815 201.1021 0007873 127.5902  30.1684 12.43457573139430
GLOBALSTAR M060         
1 26083U 00008C   25009.37908706 -.00000143  00000+0 -51620-3 0  9999
2 26083  52.0003 140.3254 0004177 148.4887 227.4061 12.17653376133021
GLOBALSTAR M064         
1 26084U 00008D   25009.86792426 -.00000104  00000+0 -29552-3 0  9990
2 26084  52.0031 269.2236 0002209  93.1209 266.9877 11.88528449148277
GLOBALSTAR M065         
1 31571U 07020A   25010.20959572 -.00000084  00000+0  11217-3 0  9990
2 31571  51.9915 347.0977 0010245 318.3112  54.5562 12.61991181813768
GLOBALSTAR M069         
1 31573U 07020C   25009.32256944 -.00000062  00000+0  24855-3 0  9994
2 31573  51.9967 310.4261 0000698  72.8279  97.5966 12.53308949814394
GLOBALSTAR M072         
1 31574U 07020D   25010.15089679 -.00000076  00000+0  10761-3 0  9993
2 31574  52.0088  52.6574 0000740  79.3524 317.1232 11.91771926812795
GLOBALSTAR M071         
1 31576U 07020F   25009.30301895 -.00000133  00000+0 -41744-3 0  9997
2 31576  52.0083 316.0421 0000934 101.9243  34.8329 12.18245571475578
